[{"OBJECT_NAME":"HAWK-C","OBJECT_ID":"2018-099AT","EPOCH":"2026-03-09T16:08:34.251360","MEAN_MOTION":15.26407167,"ECCENTRICITY":0.00403625,"INCLINATION":97.4027,"RA_OF_ASC_NODE":122.6817,"ARG_OF_PERICENTER":277.4052,"MEAN_ANOMALY":82.2601,"EPHEMERIS_TYPE":0,"CLASSIFICATION_TYPE":"U","NORAD_CAT_ID":43799,"ELEMENT_SET_NO":999,"REV_AT_EPOCH":39872,"BSTAR":0.00035662773,"MEAN_MOTION_DOT":9.431e-5,"MEAN_MOTION_DDOT":0},{"OBJECT_NAME":"STARLINK-32594","OBJECT_ID":"2024-239B","EPOCH":"2026-03-09T15:04:56.485056","MEAN_MOTION":15.30200467,"ECCENTRICITY":9.32e-5,"INCLINATION":53.1575,"RA_OF_ASC_NODE":191.9864,"ARG_OF_PERICENTER":102.379,"MEAN_ANOMALY":257.7315,"EPHEMERIS_TYPE":0,"CLASSIFICATION_TYPE":"U","NORAD_CAT_ID":62302,"ELEMENT_SET_NO":999,"REV_AT_EPOCH":6940,"BSTAR":0.00078336,"MEAN_MOTION_DOT":0.00022914,"MEAN_MOTION_DDOT":0}]
