HAWK-C                  
1 43799U 18099AT  26068.67261865  .00009431  00000+0  35663-3 0  9994
2 43799  97.4027 122.6817 0040363 277.4052  82.2601 15.26407167398720
STARLINK-32594          
1 62302U 24239B   26068.62843154  .00022914  00000+0  78336-3 0  9995
2 62302  53.1575 191.9864 0000932 102.3790 257.7315 15.30200467 69402
